stk.v.11.0
BEGIN Ephemeris
NumberOfEphemerisPoints 181
ScenarioEpoch 21 Mar 2026 09:30:30.000
InterpolationMethod Lagrange
InterpolationOrder 7
CentralBody Earth
CoordinateSystem TEME
DistanceUnit Kilometers
BEGIN EphemerisTimePosVel
0.000000 5779.134396051 1482.181088020 3459.068527500 -3.358851094 -2.076553562 6.493136155
1.000000 5775.775544957 1480.104534458 3465.561663655 -3.362357988 -2.077452241 6.491031961
2.000000 5772.409680076 1478.026183537 3472.050591421 -3.369369731 -2.079248338 6.486819631
3.000000 5769.036805495 1475.946037782 3478.535302918 -3.376377383 -2.081041909 6.482599425
4.000000 5765.656925309 1473.864099719 3485.015790271 -3.383380935 -2.082832954 6.478371346
5.000000 5762.270043624 1471.780371875 3491.492045610 -3.390380379 -2.084621469 6.474135401
6.000000 5758.876164552 1469.694856781 3497.964061072 -3.397375705 -2.086407453 6.469891593
7.000000 5755.475292214 1467.607556970 3504.431828797 -3.404366906 -2.088190903 6.465639929
8.000000 5752.067430740 1465.518474976 3510.895340930 -3.411353972 -2.089971817 6.461380413
9.000000 5748.652584269 1463.427613336 3517.354589624 -3.418336897 -2.091750193 6.457113051
10.000000 5745.230756947 1461.334974590 3523.809567033 -3.425315670 -2.093526029 6.452837848
11.000000 5741.801952930 1459.240561278 3530.260265320 -3.432290283 -2.095299323 6.448554809
12.000000 5738.366176381 1457.144375943 3536.706676651 -3.439260729 -2.097070073 6.444263939
13.000000 5734.923431473 1455.046421132 3543.148793198 -3.446226998 -2.098838276 6.439965244
14.000000 5731.473722386 1452.946699391 3549.586607138 -3.453189082 -2.100603930 6.435658728
15.000000 5728.017053309 1450.845213272 3556.020110654 -3.460146973 -2.102367033 6.431344397
16.000000 5724.553428440 1448.741965324 3562.449295932 -3.467100662 -2.104127584 6.427022256
17.000000 5721.082851985 1446.636958104 3568.874155166 -3.474050140 -2.105885579 6.422692311
18.000000 5717.605328159 1444.530194166 3575.294680553 -3.480995400 -2.107641017 6.418354566
19.000000 5714.120861184 1442.421676070 3581.710864297 -3.487936433 -2.109393896 6.414009027
20.000000 5710.629455292 1440.311406375 3588.122698607 -3.494873231 -2.111144213 6.409655699
21.000000 5707.131114723 1438.199387644 3594.530175696 -3.501805784 -2.112891966 6.405294588
22.000000 5703.625843724 1436.085622443 3600.933287783 -3.508734085 -2.114637154 6.400925698
23.000000 5700.113646553 1433.970113337 3607.332027092 -3.515658125 -2.116379773 6.396549036
24.000000 5696.594527474 1431.852862896 3613.726385854 -3.522577896 -2.118119823 6.392164606
25.000000 5693.068490760 1429.733873691 3620.116356304 -3.529493389 -2.119857301 6.387772413
26.000000 5689.535540695 1427.613148294 3626.501930681 -3.536404597 -2.121592204 6.383372464
27.000000 5685.995681567 1425.490689283 3632.883101232 -3.543311510 -2.123324531 6.378964763
28.000000 5682.448917676 1423.366499232 3639.259860207 -3.550214120 -2.125054279 6.374549316
29.000000 5678.895253328 1421.240580724 3645.632199864 -3.557112419 -2.126781447 6.370126128
30.000000 5675.334692839 1419.112936337 3652.000112463 -3.564006398 -2.128506033 6.365695204
31.000000 5671.767240532 1416.983568658 3658.363590272 -3.570896049 -2.130228033 6.361256550
32.000000 5668.192900740 1414.852480271 3664.722625564 -3.577781364 -2.131947447 6.356810172
33.000000 5664.611677803 1412.719673764 3671.077210615 -3.584662335 -2.133664272 6.352356074
34.000000 5661.023576071 1410.585151727 3677.427337711 -3.591538952 -2.135378506 6.347894262
35.000000 5657.428599899 1408.448916752 3683.772999139 -3.598411208 -2.137090147 6.343424741
36.000000 5653.826753655 1406.310971434 3690.114187194 -3.605279094 -2.138799192 6.338947518
37.000000 5650.218041711 1404.171318368 3696.450894175 -3.612142603 -2.140505640 6.334462597
38.000000 5646.602468449 1402.029960153 3702.783112387 -3.619001724 -2.142209489 6.329969983
39.000000 5642.980038262 1399.886899389 3709.110834141 -3.625856452 -2.143910737 6.325469683
40.000000 5639.350755546 1397.742138679 3715.434051753 -3.632706776 -2.145609381 6.320961702
41.000000 5635.714624710 1395.595680626 3721.752757544 -3.639552688 -2.147305420 6.316446044
42.000000 5632.071650169 1393.447527839 3728.066943842 -3.646394181 -2.148998851 6.311922716
43.000000 5628.421836347 1391.297682924 3734.376602977 -3.653231247 -2.150689673 6.307391724
44.000000 5624.765187676 1389.146148494 3740.681727289 -3.660063875 -2.152377882 6.302853072
45.000000 5621.101708597 1386.992927160 3746.982309121 -3.666892060 -2.154063478 6.298306766
46.000000 5617.431403557 1384.838021537 3753.278340822 -3.673715791 -2.155746459 6.293752812
47.000000 5613.754277015 1382.681434242 3759.569814746 -3.680535061 -2.157426821 6.289191215
48.000000 5610.070333435 1380.523167895 3765.856723252 -3.687349862 -2.159104564 6.284621981
49.000000 5606.379577291 1378.363225115 3772.139058708 -3.694160185 -2.160779684 6.280045115
50.000000 5602.682013065 1376.201608526 3778.416813483 -3.700966022 -2.162452181 6.275460623
51.000000 5598.977645247 1374.038320752 3784.689979955 -3.707767365 -2.164122052 6.270868511
52.000000 5595.266478336 1371.873364422 3790.958550505 -3.714564205 -2.165789295 6.266268783
53.000000 5591.548516837 1369.706742163 3797.222517521 -3.721356534 -2.167453908 6.261661446
54.000000 5587.823765267 1367.538456606 3803.481873398 -3.728144345 -2.169115888 6.257046506
55.000000 5584.092228148 1365.368510386 3809.736610533 -3.734927628 -2.170775235 6.252423967
56.000000 5580.353910011 1363.196906136 3815.986721331 -3.741706376 -2.172431946 6.247793835
57.000000 5576.608815396 1361.023646494 3822.232198203 -3.748480580 -2.174086018 6.243156116
58.000000 5572.856948851 1358.848734100 3828.473033564 -3.755250232 -2.175737451 6.238510817
59.000000 5569.098314932 1356.672171593 3834.709219836 -3.762015324 -2.177386241 6.233857941
60.000000 5565.332918203 1354.493961617 3840.940749446 -3.768775847 -2.179032387 6.229197495
61.000000 5561.560763237 1352.314106818 3847.167614826 -3.775531794 -2.180675888 6.224529485
62.000000 5557.781854615 1350.132609842 3853.389808416 -3.782283156 -2.182316740 6.219853916
63.000000 5553.996196924 1347.949473339 3859.607322659 -3.789029926 -2.183954942 6.215170794
64.000000 5550.203794764 1345.764699959 3865.820150005 -3.795772093 -2.185590492 6.210480125
65.000000 5546.404652738 1343.578292356 3872.028282909 -3.802509652 -2.187223387 6.205781914
66.000000 5542.598775460 1341.390253184 3878.231713833 -3.809242593 -2.188853627 6.201076167
67.000000 5538.786167552 1339.200585101 3884.430435244 -3.815970908 -2.190481209 6.196362890
68.000000 5534.966833643 1337.009290766 3890.624439614 -3.822694590 -2.192106131 6.191642089
69.000000 5531.140778373 1334.816372840 3896.813719421 -3.829413629 -2.193728391 6.186913768
70.000000 5527.308006386 1332.621833985 3902.998267150 -3.836128018 -2.195347986 6.182177935
71.000000 5523.468522337 1330.425676867 3909.178075290 -3.842837748 -2.196964916 6.177434594
72.000000 5519.622330889 1328.227904152 3915.353136338 -3.849542813 -2.198579178 6.172683752
73.000000 5515.769436712 1326.028518510 3921.523442794 -3.856243202 -2.200190771 6.167925413
74.000000 5511.909844485 1323.827522611 3927.688987165 -3.862938909 -2.201799691 6.163159585
75.000000 5508.043558894 1321.624919128 3933.849761964 -3.869629924 -2.203405938 6.158386273
76.000000 5504.170584636 1319.420710735 3940.005759711 -3.876316241 -2.205009509 6.153605482
77.000000 5500.290926412 1317.214900110 3946.156972929 -3.882997850 -2.206610402 6.148817219
78.000000 5496.404588935 1315.007489931 3952.303394149 -3.889674745 -2.208208616 6.144021489
79.000000 5492.511576923 1312.798482878 3958.445015907 -3.896346915 -2.209804148 6.139218298
80.000000 5488.611895105 1310.587881635 3964.581830745 -3.903014354 -2.211396997 6.134407652
81.000000 5484.705548214 1308.375688885 3970.713831211 -3.909677054 -2.212987160 6.129589556
82.000000 5480.792540996 1306.161907314 3976.841009858 -3.916335006 -2.214574636 6.124764017
83.000000 5476.872878202 1303.946539612 3982.963359245 -3.922988202 -2.216159423 6.119931041
84.000000 5472.946564592 1301.729588468 3989.080871939 -3.929636634 -2.217741519 6.115090633
85.000000 5469.013604934 1299.511056574 3995.193540511 -3.936280295 -2.219320921 6.110242799
86.000000 5465.074004003 1297.290946625 4001.301357536 -3.942919175 -2.220897629 6.105387545
87.000000 5461.127766584 1295.069261317 4007.404315600 -3.949553267 -2.222471639 6.100524877
88.000000 5457.174897468 1292.846003347 4013.502407289 -3.956182563 -2.224042951 6.095654800
89.000000 5453.215401457 1290.621175415 4019.595625200 -3.962807055 -2.225611562 6.090777322
90.000000 5449.249283358 1288.394780223 4025.683961933 -3.969426735 -2.227177470 6.085892447
91.000000 5445.276547987 1286.166820474 4031.767410095 -3.976041595 -2.228740674 6.081000182
92.000000 5441.297200169 1283.937298875 4037.845962297 -3.982651626 -2.230301171 6.076100533
93.000000 5437.311244735 1281.706218132 4043.919611160 -3.989256821 -2.231858960 6.071193504
94.000000 5433.318686527 1279.473580955 4049.988349306 -3.995857171 -2.233414039 6.066279104
95.000000 5429.319530393 1277.239390055 4056.052169367 -4.002452669 -2.234966405 6.061357337
96.000000 5425.313781189 1275.003648144 4062.111063980 -4.009043307 -2.236516058 6.056428209
97.000000 5421.301443779 1272.766357939 4068.165025786 -4.015629077 -2.238062994 6.051491727
98.000000 5417.282523036 1270.527522156 4074.214047433 -4.022209970 -2.239607213 6.046547896
99.000000 5413.257023839 1268.287143513 4080.258121577 -4.028785978 -2.241148712 6.041596722
100.000000 5409.224951079 1266.045224731 4086.297240878 -4.035357095 -2.242687490 6.036638212
101.000000 5405.186309650 1263.801768533 4092.331398002 -4.041923311 -2.244223544 6.031672372
102.000000 5401.141104457 1261.556777643 4098.360585622 -4.048484619 -2.245756873 6.026699207
103.000000 5397.089340412 1259.310254787 4104.384796415 -4.055041010 -2.247287475 6.021718723
END EphemerisTimePosVel
END Ephemeris
